{"epoch":1784902576,"count":18312,"objects":[{"id":"69745","name":"STARLINK-38047","type":"PAYLOAD","l1":"1 69745U 26150G   26205.09976765  .00297963  00000-0  19303-2 0  9993","l2":"2 69745  97.2859  43.9125 0001025  87.1931 272.9451 15.75181318  4727"},{"id":"69746","name":"STARLINK-38046","type":"PAYLOAD","l1":"1 69746U 26150H   26205.08317895  .00229885  00000-0  15020-2 0  9996","l2":"2 69746  97.2850  43.9351 0001922 151.6966 208.4404 15.75174787  4725"},{"id":"69747","name":"STARLINK-38067","type":"PAYLOAD","l1":"1 69747U 26150J   26205.30270379  .00235533  00000-0  15344-2 0  9993","l2":"2 69747  97.2844  44.0953 0001785  75.1620 284.9842 15.75226992  4757"},{"id":"69748","name":"STARLINK-37988","type":"PAYLOAD","l1":"1 69748U 26150K   26205.17388265  .00274266  00000-0  17772-2 0  9996","l2":"2 69748  97.2843  43.9637 0001201 100.4450 259.6950 15.75241950  4738"},{"id":"69749","name":"STARLINK-37987","type":"PAYLOAD","l1":"1 69749U 26150L   26205.10611945  .00339167  00000-0  21859-2 0  9997","l2":"2 69749  97.2835  43.9040 0001042  95.9448 264.1936 15.75186630  4723"},{"id":"69750","name":"STARLINK-38037","type":"PAYLOAD","l1":"1 69750U 26150M   26205.25002315 -.00121482  00000-0 -82331-3 0  9994","l2":"2 69750  97.2837  44.1287 0001340  84.1581 181.4237 15.75243181  4755"},{"id":"69751","name":"STARLINK-38049","type":"PAYLOAD","l1":"1 69751U 26150N   26205.18678778  .00599472  00000-0  28730-2 0  9997","l2":"2 69751  97.2846  44.1003 0001281 156.6835 203.4492 15.81174953  4747"},{"id":"69752","name":"STARLINK-38029","type":"PAYLOAD","l1":"1 69752U 26150P   26205.08953722  .00245206  00000-0  15982-2 0  9990","l2":"2 69752  97.2829  43.9276 0001869  79.2134 280.9342 15.75187850  4727"},{"id":"69753","name":"STARLINK-37965","type":"PAYLOAD","l1":"1 69753U 26150Q   26205.09623826  .00290733  00000-0  18851-2 0  9994","l2":"2 69753  97.2846  43.9164 0001084  97.7897 262.3491 15.75181699  4727"},{"id":"69754","name":"STARLINK-38048","type":"PAYLOAD","l1":"1 69754U 26150R   26205.30725978  .00309340  00000-0  15540-2 0  9997","l2":"2 69754  97.2845  44.2440 0001384 126.5384 233.6012 15.80888154  4763"},{"id":"69755","name":"STARLINK-38006","type":"PAYLOAD","l1":"1 69755U 26150S   26205.08706476  .00265660  00000-0  17276-2 0  9999","l2":"2 69755  97.2840  43.9296 0001293  90.9692 269.1721 15.75183305  4726"},{"id":"69756","name":"STARLINK-38036","type":"PAYLOAD","l1":"1 69756U 26150T   26205.14388820  .00317186  00000-0  20489-2 0  9997","l2":"2 69756  97.2842  44.0074 0001711  94.9527 265.1934 15.75196011  4732"},{"id":"69757","name":"STARLINK-38058","type":"PAYLOAD","l1":"1 69757U 26150U   26205.07012894  .00268758  00000-0  17372-2 0  9992","l2":"2 69757  97.2843  43.9539 0001187  65.0212 295.1176 15.75314701  4723"},{"id":"69758","name":"STARLINK-38066","type":"PAYLOAD","l1":"1 69758U 26150V   26205.06589562  .00203874  00000-0  13382-2 0  9998","l2":"2 69758  97.2846  43.9591 0001284 132.5954 227.5420 15.75140733  4729"},{"id":"69759","name":"STARLINK-38035","type":"PAYLOAD","l1":"1 69759U 26150W   26205.25002315 -.00117349  00000-0 -79474-3 0  9994","l2":"2 69759  97.2844  44.1773 0001724  85.3682 292.2058 15.75246185  4752"},{"id":"69760","name":"STARLINK-38056","type":"PAYLOAD","l1":"1 69760U 26150X   26205.23611354 -.00682465  00000-0 -40750-2 0  9993","l2":"2 69760  97.2828  44.1880 0003329  28.7901 331.3550 15.79548233  4758"},{"id":"69761","name":"STARLINK-38069","type":"PAYLOAD","l1":"1 69761U 26150Y   26205.31788012  .00324084  00000-0  20856-2 0  9992","l2":"2 69761  97.2829  44.2297 0002278 139.4820 220.6615 15.75264179  4768"},{"id":"69762","name":"STARLINK-38019","type":"PAYLOAD","l1":"1 69762U 26150Z   26205.08636005  .00299151  00000-0  19392-2 0  9990","l2":"2 69762  97.2839  43.9304 0001889  70.5915 289.5554 15.75164045  4725"},{"id":"69763","name":"KUIPER-00258","type":"PAYLOAD","l1":"1 69763U 26151A   26205.18790054  .00017188  00000-0  51818-3 0  9996","l2":"2 69763  51.8677 137.2417 0010796 196.9044 163.1583 15.34356413  3395"},{"id":"69764","name":"KUIPER-00526","type":"PAYLOAD","l1":"1 69764U 26151B   26205.25002315 -.00957603  00000-0 -33943-1 0  9995","l2":"2 69764  51.8781 136.6867 0004833 168.0753 303.8965 15.31070940  3534"},{"id":"69765","name":"KUIPER-00558","type":"PAYLOAD","l1":"1 69765U 26151C   26205.25002315 -.01270715  00000-0 -55250-1 0  9994","l2":"2 69765  51.8814 137.0441 0006679 185.8846 108.0912 15.24734129  4014"},{"id":"69766","name":"KUIPER-00569","type":"PAYLOAD","l1":"1 69766U 26151D   26205.22020684  .00036923  00000-0  98853-3 0  9997","l2":"2 69766  51.8793 136.7301 0004627 170.4496 189.6580 15.37661921  3405"},{"id":"69767","name":"KUIPER-00589","type":"PAYLOAD","l1":"1 69767U 26151E   26205.25002315  .00089638  00000-0  30075-2 0  9994","l2":"2 69767  51.8773 136.6847 0005032 172.4124 289.5407 15.30106751  4046"},{"id":"69768","name":"KUIPER-00598","type":"PAYLOAD","l1":"1 69768U 26151F   26205.18928320  .00024909  00000-0  74796-3 0  9999","l2":"2 69768  51.8647 137.2456 0008389 194.7091 165.3651 15.34255925  3399"},{"id":"69769","name":"KUIPER-00604","type":"PAYLOAD","l1":"1 69769U 26151G   26205.20976858  .00035746  00000-0  94352-3 0  9993","l2":"2 69769  51.8811 136.6634 0002232 129.5544 230.5641 15.38122118  3401"},{"id":"69770","name":"KUIPER-00609","type":"PAYLOAD","l1":"1 69770U 26151H   26205.20360774  .00036169  00000-0  93230-3 0  9993","l2":"2 69770  51.8803 136.6222 0001153  63.9143 296.1963 15.38847581  3407"},{"id":"69771","name":"KUIPER-00611","type":"PAYLOAD","l1":"1 69771U 26151J   26205.20640649  .00022971  00000-0  60061-3 0  9998","l2":"2 69771  51.8814 136.6349 0001574 135.1599 224.9516 15.38653019  3408"},{"id":"69772","name":"KUIPER-00612","type":"PAYLOAD","l1":"1 69772U 26151K   26205.21368126  .00021238  00000-0  56554-3 0  9994","l2":"2 69772  51.8800 136.6880 0003507 145.0992 215.0226 15.38136198  3402"},{"id":"69773","name":"KUIPER-00614","type":"PAYLOAD","l1":"1 69773U 26151L   26205.21078419  .00059920  00000-0  15611-2 0  9995","l2":"2 69773  51.8803 136.6682 0001919 146.6120 213.4989 15.38290596  3402"},{"id":"69774","name":"KUIPER-00615","type":"PAYLOAD","l1":"1 69774U 26151M   26205.25002315  .00096940  00000-0  29043-2 0  9999","l2":"2 69774  51.8782 136.6947 0006406 178.0068 301.8175 15.33685437  2246"}]}