OBJECT_NAME,OBJECT_ID,EPOCH,MEAN_MOTION,ECCENTRICITY,INCLINATION,RA_OF_ASC_NODE,ARG_OF_PERICENTER,MEAN_ANOMALY,EPHEMERIS_TYPE,CLASSIFICATION_TYPE,NORAD_CAT_ID,ELEMENT_SET_NO,REV_AT_EPOCH,BSTAR,MEAN_MOTION_DOT,MEAN_MOTION_DDOT
STARLINK-38047,2026-150G,2026-07-24T02:23:39.924960,15.75181318,.00010249,97.2859,43.9125,87.1931,272.9451,0,U,69745,999,472,.19303385E-2,.297963E-2,0
STARLINK-38046,2026-150H,2026-07-24T01:59:46.661280,15.75174787,.00019218,97.2850,43.9351,151.6966,208.4404,0,U,69746,999,472,.15019624E-2,.229885E-2,0
STARLINK-38067,2026-150J,2026-07-24T07:15:53.607456,15.75226992,.00017849,97.2844,44.0953,75.1620,284.9842,0,U,69747,999,475,.15343591E-2,.235533E-2,0
STARLINK-37988,2026-150K,2026-07-24T04:10:23.460960,15.75241950,.00012007,97.2843,43.9637,100.4450,259.6950,0,U,69748,999,473,.17772376E-2,.274266E-2,0
STARLINK-37987,2026-150L,2026-07-24T02:32:48.720480,15.75186630,.00010418,97.2835,43.9040,95.9448,264.1936,0,U,69749,999,472,.21859415E-2,.339167E-2,0
STARLINK-38037,2026-150M,2026-07-24T06:00:02.000160,15.75243181,.000134,97.2837,44.1287,84.1581,181.4237,0,U,69750,999,475,-.82330653E-3,-.121482E-2,0
STARLINK-38049,2026-150N,2026-07-24T04:28:58.464192,15.81174953,.00012805,97.2846,44.1003,156.6835,203.4492,0,U,69751,999,474,.2872967E-2,.599472E-2,0
STARLINK-38029,2026-150P,2026-07-24T02:08:56.015808,15.75187850,.00018686,97.2829,43.9276,79.2134,280.9342,0,U,69752,999,472,.1598215E-2,.245206E-2,0
STARLINK-37965,2026-150Q,2026-07-24T02:18:34.985664,15.75181699,.00010836,97.2846,43.9164,97.7897,262.3491,0,U,69753,999,472,.18851105E-2,.290733E-2,0
STARLINK-38048,2026-150R,2026-07-24T07:22:27.244992,15.80888154,.00013842,97.2845,44.2440,126.5384,233.6012,0,U,69754,999,476,.1553992E-2,.30934E-2,0
STARLINK-38006,2026-150S,2026-07-24T02:05:22.395264,15.75183305,.00012934,97.2840,43.9296,90.9692,269.1721,0,U,69755,999,472,.17276267E-2,.26566E-2,0
STARLINK-38036,2026-150T,2026-07-24T03:27:11.940480,15.75196011,.00017109,97.2842,44.0074,94.9527,265.1934,0,U,69756,999,473,.20488757E-2,.317186E-2,0
STARLINK-38058,2026-150U,2026-07-24T01:40:59.140416,15.75314701,.00011869,97.2843,43.9539,65.0212,295.1176,0,U,69757,999,472,.17372303E-2,.268758E-2,0
STARLINK-38066,2026-150V,2026-07-24T01:34:53.381568,15.75140733,.00012839,97.2846,43.9591,132.5954,227.5420,0,U,69758,999,472,.13381951E-2,.203874E-2,0
STARLINK-38035,2026-150W,2026-07-24T06:00:02.000160,15.75246185,.0001724,97.2844,44.1773,85.3682,292.2058,0,U,69759,999,475,-.7947412E-3,-.117349E-2,0
STARLINK-38056,2026-150X,2026-07-24T05:40:00.209856,15.79548233,.00033292,97.2828,44.1880,28.7901,331.3550,0,U,69760,999,475,-.40750448E-2,-.682465E-2,0
STARLINK-38069,2026-150Y,2026-07-24T07:37:44.842368,15.75264179,.00022783,97.2829,44.2297,139.4820,220.6615,0,U,69761,999,476,.20855519E-2,.324084E-2,0
STARLINK-38019,2026-150Z,2026-07-24T02:04:21.508320,15.75164045,.0001889,97.2839,43.9304,70.5915,289.5554,0,U,69762,999,472,.19392246E-2,.299151E-2,0
KUIPER-00258,2026-151A,2026-07-24T04:30:34.606656,15.34356413,.00107964,51.8677,137.2417,196.9044,163.1583,0,U,69763,999,339,.51817855E-3,.17188E-3,0
KUIPER-00526,2026-151B,2026-07-24T06:00:02.000160,15.31070940,.00048328,51.8781,136.6867,168.0753,303.8965,0,U,69764,999,353,-.33942686E-1,-.957603E-2,0
KUIPER-00558,2026-151C,2026-07-24T06:00:02.000160,15.24734129,.00066792,51.8814,137.0441,185.8846,108.0912,0,U,69765,999,401,-.55249548E-1,-.1270715E-1,0
KUIPER-00569,2026-151D,2026-07-24T05:17:05.870976,15.37661921,.00046268,51.8793,136.7301,170.4496,189.6580,0,U,69766,999,340,.98852887E-3,.36923E-3,0
KUIPER-00589,2026-151E,2026-07-24T06:00:02.000160,15.30106751,.0005032,51.8773,136.6847,172.4124,289.5407,0,U,69767,999,404,.30074871E-2,.89638E-3,0
KUIPER-00598,2026-151F,2026-07-24T04:32:34.068480,15.34255925,.00083888,51.8647,137.2456,194.7091,165.3651,0,U,69768,999,339,.7479613E-3,.24909E-3,0
KUIPER-00604,2026-151G,2026-07-24T05:02:04.005312,15.38122118,.00022318,51.8811,136.6634,129.5544,230.5641,0,U,69769,999,340,.94351796E-3,.35746E-3,0
KUIPER-00609,2026-151H,2026-07-24T04:53:11.708736,15.38847581,.00011528,51.8803,136.6222,63.9143,296.1963,0,U,69770,999,340,.93229714E-3,.36169E-3,0
KUIPER-00611,2026-151J,2026-07-24T04:57:13.520736,15.38653019,.00015739,51.8814,136.6349,135.1599,224.9516,0,U,69771,999,340,.60061133E-3,.22971E-3,0
KUIPER-00612,2026-151K,2026-07-24T05:07:42.060864,15.38136198,.00035068,51.8800,136.6880,145.0992,215.0226,0,U,69772,999,340,.56554E-3,.21238E-3,0
KUIPER-00614,2026-151L,2026-07-24T05:03:31.754016,15.38290596,.00019189,51.8803,136.6682,146.6120,213.4989,0,U,69773,999,340,.15610791E-2,.5992E-3,0
KUIPER-00615,2026-151M,2026-07-24T06:00:02.000160,15.33685437,.00064057,51.8782,136.6947,178.0068,301.8175,0,U,69774,999,224,.29043088E-2,.9694E-3,0
